NORAD_CAT_ID,OBJECT_NAME,OBJECT_TYPE,EPOCH,MEAN_MOTION,ECCENTRICITY,INCLINATION,RA_OF_ASC_NODE,ARG_OF_PERICENTER,MEAN_ANOMALY,BSTAR,MEAN_MOTION_DOT,MEAN_MOTION_DDOT,TLE_LINE0,TLE_LINE1,TLE_LINE2,SEMIMAJOR_AXIS,PERIOD,APOGEE,PERIGEE,DECAYED
53017.0,STARLINK-4281,PAYLOAD,2024-03-09 12:26:50,15.08839206,0.0001516,53.2166,121.9894,103.3318,256.7843,0.00016521,2.342e-05,0.0,0 STARLINK-4281,1 53017U 22076AH  24069.51863934  .00002342  00000-0  16521-3 0  9992,2 53017  53.2166 121.9894 0001516 103.3318 256.7843 15.08839206 92768,6917.883,95.438,540.797,538.699,0.0
53017.0,STARLINK-4281,PAYLOAD,2024-03-09 20:23:46,15.08846523,0.0001571,53.2165,120.5019,92.9347,267.1825,0.0004018,6.114e-05,0.0,0 STARLINK-4281,1 53017U 22076AH  24069.84983818  .00006114  00000-0  40180-3 0  9991,2 53017  53.2165 120.5019 0001571  92.9347 267.1825 15.08846523 92819,6917.86,95.437,540.812,538.639,0.0
53017.0,STARLINK-4281,PAYLOAD,2024-03-10 10:42:14,15.0883325,0.0001503,53.2167,117.8261,92.6613,267.4551,0.00014738,2.058e-05,0.0,0 STARLINK-4281,1 53017U 22076AH  24070.44600623  .00002058  00000-0  14738-3 0  9992,2 53017  53.2167 117.8261 0001503  92.6613 267.4551 15.08833250 93360,6917.901,95.438,540.806,538.726,0.0
53017.0,STARLINK-4281,PAYLOAD,2024-03-11 10:33:01,15.08846859,0.0001433,53.2151,113.3655,88.7446,271.371,0.0002653,3.938e-05,0.0,0 STARLINK-4281,1 53017U 22076AH  24071.43960245  .00003938  00000-0  26530-3 0  9992,2 53017  53.2151 113.3655 0001433  88.7446 271.3710 15.08846859 93510,6917.859,95.437,540.716,538.733,0.0
53017.0,STARLINK-4281,PAYLOAD,2024-03-12 11:59:11,15.08842625,0.0001769,53.217,108.6033,90.6905,269.429,8.9031e-05,1.129e-05,0.0,0 STARLINK-4281,1 53017U 22076AH  24072.49944264  .00001129  00000-0  89031-4 0  9998,2 53017  53.2170 108.6033 0001769  90.6905 269.4290 15.08842625 93677,6917.872,95.437,540.961,538.514,0.0
53017.0,STARLINK-4281,PAYLOAD,2024-03-12 19:56:07,15.0884649,0.0001532,53.2157,107.1192,90.1778,269.939,0.00017383,2.48e-05,0.0,0 STARLINK-4281,1 53017U 22076AH  24072.83064041  .00002480  00000-0  17383-3 0  9993,2 53017  53.2157 107.1192 0001532  90.1778 269.9390 15.08846490 93268,6917.861,95.437,540.785,538.666,0.0
53017.0,STARLINK-4281,PAYLOAD,2024-03-13 08:39:12,15.08839595,0.0001409,53.2172,104.7412,93.4489,266.6664,6.5477e-05,7.54e-06,0.0,0 STARLINK-4281,1 53017U 22076AH  24073.36056300  .00000754  00000-0  65477-4 0  9991,2 53017  53.2172 104.7412 0001409  93.4489 266.6664 15.08839595 93346,6917.882,95.438,540.721,538.772,0.0
53017.0,STARLINK-4281,PAYLOAD,2024-03-14 06:54:36,15.08841037,0.0001657,53.2174,100.5776,90.9597,269.1585,0.0001159,1.557e-05,0.0,0 STARLINK-4281,1 53017U 22076AH  24074.28792292  .00001557  00000-0  11590-3 0  9998,2 53017  53.2174 100.5776 0001657  90.9597 269.1585 15.08841037 93481,6917.877,95.437,540.889,538.596,0.0
53017.0,STARLINK-4281,PAYLOAD,2024-03-14 08:29:59,15.08841215,0.0001559,53.2173,100.2804,91.5866,268.5305,0.00013933,1.93e-05,0.0,0 STARLINK-4281,1 53017U 22076AH  24074.35416260  .00001930  00000-0  13933-3 0  9992,2 53017  53.2173 100.2804 0001559  91.5866 268.5305 15.08841215 93498,6917.877,95.437,540.82,538.663,0.0
53017.0,STARLINK-4281,PAYLOAD,2024-03-15 05:10:00,15.08838338,0.0001531,53.2164,96.4136,92.0854,268.0314,9.3154e-05,1.195e-05,0.0,0 STARLINK-4281,1 53017U 22076AH  24075.21528375  .00001195  00000-0  93154-4 0  9996,2 53017  53.2164  96.4136 0001531  92.0854 268.0314 15.08838338 94088,6917.885,95.438,540.81,538.691,0.0
53017.0,STARLINK-4281,PAYLOAD,2024-03-15 08:20:46,15.08840475,0.0001445,53.2157,95.8178,89.7297,270.386,8.1686e-05,1.012e-05,0.0,0 STARLINK-4281,1 53017U 22076AH  24075.34776247  .00001012  00000-0  81686-4 0  9998,2 53017  53.2157  95.8178 0001445  89.7297 270.3860 15.08840475 93645,6917.879,95.438,540.744,538.744,0.0
53017.0,STARLINK-4281,PAYLOAD,2024-03-16 05:00:48,15.08834757,0.0001453,53.2168,91.9528,92.6353,267.4806,3.3048e-05,2.38e-06,0.0,0 STARLINK-4281,1 53017U 22076AH  24076.20888982  .00000238  00000-0  33048-4 0  9992,2 53017  53.2168  91.9528 0001453  92.6353 267.4806 15.08834757 94237,6917.896,95.438,540.767,538.756,0.0
53017.0,STARLINK-4281,PAYLOAD,2024-03-16 06:36:11,15.08834736,0.0001458,53.2169,91.6555,92.5416,267.5743,2.8137e-05,1.6e-06,0.0,0 STARLINK-4281,1 53017U 22076AH  24076.27512995  .00000160  00000-0  28137-4 0  9994,2 53017  53.2169  91.6555 0001458  92.5416 267.5743 15.08834736 93786,6917.896,95.438,540.77,538.753,0.0
53017.0,STARLINK-4281,PAYLOAD,2024-03-17 08:02:21,15.08837515,0.0001458,53.2169,86.8978,94.7903,265.3256,7.6555e-05,9.31e-06,0.0,0 STARLINK-4281,1 53017U 22076AH  24077.33496957  .00000931  00000-0  76555-4 0  9994,2 53017  53.2169  86.8978 0001458  94.7903 265.3256 15.08837515 94409,6917.888,95.438,540.762,538.744,0.0
53017.0,STARLINK-4281,PAYLOAD,2024-03-18 07:53:08,15.0884052,0.0001374,53.2167,82.4374,91.4171,268.6978,0.00012213,1.656e-05,0.0,0 STARLINK-4281,1 53017U 22076AH  24078.32856828  .00001656  00000-0  12213-3 0  9996,2 53017  53.2167  82.4374 0001374  91.4171 268.6978 15.08840520 94099,6917.879,95.438,540.694,538.793,0.0
53017.0,STARLINK-4281,PAYLOAD,2024-03-19 04:33:09,15.08843987,0.0001414,53.2169,78.572,89.4359,270.6795,0.00010665,1.41e-05,0.0,0 STARLINK-4281,1 53017U 22076AH  24079.18968780  .00001410  00000-0  10665-3 0  9999,2 53017  53.2169  78.5720 0001414  89.4359 270.6795 15.08843987 94687,6917.868,95.437,540.711,538.755,0.0
53017.0,STARLINK-4281,PAYLOAD,2024-03-19 09:19:18,15.08848411,0.0001443,53.2171,77.6794,90.6576,269.4582,0.00013359,1.839e-05,0.0,0 STARLINK-4281,1 53017U 22076AH  24079.38840404  .00001839  00000-0  13359-3 0  9991,2 53017  53.2171  77.6794 0001443  90.6576 269.4582 15.08848411 94258,6917.855,95.437,540.718,538.721,0.0
53017.0,STARLINK-4281,PAYLOAD,2024-03-20 09:10:05,15.08845572,0.0001458,53.2174,73.2184,95.8642,264.2517,8.8006e-05,1.113e-05,0.0,0 STARLINK-4281,1 53017U 22076AH  24080.38200440  .00001113  00000-0  88006-4 0  9990,2 53017  53.2174  73.2184 0001458  95.8642 264.2517 15.08845572 94866,6917.863,95.437,540.737,538.72,0.0
53017.0,STARLINK-4281,PAYLOAD,2024-03-21 04:14:43,15.08841518,0.0001467,53.2173,69.6488,105.7629,254.3525,1.2559e-05,-8.8e-07,0.0,0 STARLINK-4281,1 53017U 22076AH  24081.17688756 -.00000088  00000-0  12559-4 0  9999,2 53017  53.2173  69.6488 0001467 105.7629 254.3525 15.08841518 94985,6917.876,95.437,540.756,538.726,0.0
53017.0,STARLINK-4281,PAYLOAD,2024-03-21 05:50:06,15.08841398,0.0001446,53.2173,69.3514,104.5534,255.5618,7.0671e-06,-1.75e-06,0.0,0 STARLINK-4281,1 53017U 22076AH  24081.24312748 -.00000175  00000-0  70671-5 0  9999,2 53017  53.2173  69.3514 0001446 104.5534 255.5618 15.08841398 94534,6917.876,95.437,540.741,538.741,0.0
53017.0,STARLINK-4281,PAYLOAD,2024-03-22 05:40:53,15.0883934,0.0001426,53.2176,64.8909,100.0634,260.0519,6.8608e-05,8.04e-06,0.0,0 STARLINK-4281,1 53017U 22076AH  24082.23672844  .00000804  00000-0  68608-4 0  9999,2 53017  53.2176  64.8909 0001426 100.0634 260.0519 15.08839340 95148,6917.882,95.438,540.734,538.761,0.0
53017.0,STARLINK-4281,PAYLOAD,2024-03-23 03:56:18,15.08828134,0.0001554,53.2176,60.7242,122.1564,237.9579,-1.1754e-05,-4.75e-06,0.0,0 STARLINK-4281,1 53017U 22076AH  24083.16410065 -.00000475  00000-0 -11754-4 0  9993,2 53017  53.2176  60.7242 0001554 122.1564 237.9579 15.08828134 95285,6917.917,95.438,540.857,538.707,0.0
53017.0,STARLINK-4281,PAYLOAD,2024-03-23 21:25:32,15.08836087,0.0001396,53.2185,57.453,116.64,243.4736,1.6894e-05,-1.9e-07,0.0,0 STARLINK-4281,1 53017U 22076AH  24083.89273957 -.00000019  00000-0  16894-4 0  9993,2 53017  53.2185  57.4530 0001396 116.6400 243.4736 15.08836087 95394,6917.892,95.438,540.723,538.792,0.0
53017.0,STARLINK-4281,PAYLOAD,2024-03-24 05:22:27,15.08850177,0.0001303,53.2183,55.9746,99.4669,260.647,0.00016769,2.383e-05,0.0,0 STARLINK-4281,1 53017U 22076AH  24084.22392739  .00002383  00000-0  16769-3 0  9996,2 53017  53.2183  55.9746 0001303  99.4669 260.6470 15.08850177 95445,6917.849,95.437,540.616,538.813,0.0
53017.0,STARLINK-4281,PAYLOAD,2024-03-25 05:13:15,15.0883057,0.0001528,53.2184,51.5117,94.5917,265.525,0.00014015,1.943e-05,0.0,0 STARLINK-4281,1 53017U 22076AH  24085.21754217  .00001943  00000-0  14015-3 0  9992,2 53017  53.2184  51.5117 0001528  94.5917 265.5250 15.08830570 95592,6917.909,95.438,540.831,538.717,0.0
53017.0,STARLINK-4281,PAYLOAD,2024-03-25 17:56:21,15.0884018,0.000145,53.2175,49.1297,89.7535,270.3623,-0.00011907,-2.182e-05,0.0,0 STARLINK-4281,1 53017U 22076AH  24085.74746713 -.00002182  00000-0 -11907-3 0  9997,2 53017  53.2175  49.1297 0001450  89.7535 270.3623 15.08840180 95215,6917.88,95.438,540.748,538.742,0.0
53017.0,STARLINK-4281,PAYLOAD,2024-03-26 05:04:04,15.08825891,0.0001592,53.2183,47.0524,82.6765,277.4409,-0.0001582,-2.804e-05,0.0,0 STARLINK-4281,1 53017U 22076AH  24086.21116052 -.00002804  00000-0 -15820-3 0  9996,2 53017  53.2183  47.0524 0001592  82.6765 277.4409 15.08825891 95748,6917.924,95.438,540.89,538.687,0.0
53017.0,STARLINK-4281,PAYLOAD,2024-03-26 14:36:21,15.08850067,0.0001502,53.219,45.2628,95.211,264.9054,-0.00022708,-3.901e-05,0.0,0 STARLINK-4281,1 53017U 22076AH  24086.60858301 -.00003901  00000-0 -22708-3 0  9991,2 53017  53.2190  45.2628 0001502  95.2110 264.9054 15.08850067 95342,6917.85,95.437,540.754,538.676,0.0
53017.0,STARLINK-4281,PAYLOAD,2024-03-26 20:57:54,15.08828767,0.000182,53.2192,44.0718,117.052,243.0658,8.6312e-05,1.085e-05,0.0,0 STARLINK-4281,1 53017U 22076AH  24086.87355117  .00001085  00000-0  86312-4 0  9998,2 53017  53.2192  44.0718 0001820 117.0520 243.0658 15.08828767 95847,6917.915,95.438,541.039,538.521,0.0
53017.0,STARLINK-4281,PAYLOAD,2024-03-27 03:19:26,15.08840344,0.0001721,53.2176,42.8926,90.2598,269.8592,0.00021016,3.058e-05,0.0,0 STARLINK-4281,1 53017U 22076AH  24087.13850329  .00003058  00000-0  21016-3 0  9994,2 53017  53.2176  42.8926 0001721  90.2598 269.8592 15.08840344 95885,6917.879,95.438,540.935,538.554,0.0
